start=new Date('2022-12-10T00:00:00.000Z').valueOf();
sats=[{"NORAD_CAT_ID":"44746","OBJECT_TYPE":"PAYLOAD","RA_OF_ASC_NODE":"152.9368","MEAN_MOTION_DDOT":"0.0000000000000","OBJECT_NAME":"STARLINK-1041","MEAN_MOTION_DOT":"-0.00004035","DECAY_DATE":null,"ARG_OF_PERICENTER":"293.8955","MEAN_ELEMENT_THEORY":"SGP4","CENTER_NAME":"EARTH","COUNTRY_CODE":"US","ELEMENT_SET_NO":"999","MEAN_MOTION":"15.06371596","PERIAPSIS":"546.498","REV_AT_EPOCH":"16936","OBJECT_ID":"2019-074AK","REF_FRAME":"TEME","INCLINATION":"53.0538","EPHEMERIS_TYPE":"0","CLASSIFICATION_TYPE":"U","ECCENTRICITY":"0.00011590","TIME_SYSTEM":"UTC","PERIOD":"95.594","SITE":"AFETR","SEMIMAJOR_AXIS":"6925.436","GP_ID":"219837888","EPOCH":"2022-12-09T05:05:30.753600","TLE_LINE1":"1 44746U 19074AK  22343.21216150 -.00004035  00000-0 -25233-3 0  9990","APOAPSIS":"548.103","RCS_SIZE":"LARGE","FILE":"3685263","BSTAR":"-0.00025233000000","TLE_LINE2":"2 44746  53.0538 152.9368 0001159 293.8955  66.1913 15.06371596169366","LAUNCH_DATE":"2019-11-11","MEAN_ANOMALY":"66.1913"},{"SITE":"AFETR","GP_ID":"219838639","SEMIMAJOR_AXIS":"6925.344","CLASSIFICATION_TYPE":"U","ECCENTRICITY":"0.00018250","EPHEMERIS_TYPE":"0","TIME_SYSTEM":"UTC","PERIOD":"95.592","MEAN_ANOMALY":"290.2583","EPOCH":"2022-12-09T04:12:24.703488","TLE_LINE1":"1 44747U 19074AL  22343.17528592  .00001676  00000-0  13142-3 0  9994","APOAPSIS":"548.472","FILE":"3685263","RCS_SIZE":"LARGE","BSTAR":"0.00013142000000","TLE_LINE2":"2 44747  53.0537 153.0882 0001825  69.8602 290.2583 15.06401624169368","LAUNCH_DATE":"2019-11-11","MEAN_MOTION_DOT":"0.00001676","DECAY_DATE":null,"ARG_OF_PERICENTER":"69.8602","COUNTRY_CODE":"US","CENTER_NAME":"EARTH","MEAN_ELEMENT_THEORY":"SGP4","ELEMENT_SET_NO":"999","MEAN_MOTION":"15.06401624","RA_OF_ASC_NODE":"153.0882","MEAN_MOTION_DDOT":"0.0000000000000","OBJECT_TYPE":"PAYLOAD","NORAD_CAT_ID":"44747","OBJECT_NAME":"STARLINK-1042","INCLINATION":"53.0537","REF_FRAME":"TEME","PERIAPSIS":"545.945","REV_AT_EPOCH":"16936","OBJECT_ID":"2019-074AL"},{"MEAN_ANOMALY":"283.9790","TLE_LINE2":"2 44748  53.0544 151.7724 0001910  76.1411 283.9790 15.06398097169572","BSTAR":"-0.00001306100000","LAUNCH_DATE":"2019-11-11","TLE_LINE1":"1 44748U 19074AM  22343.47016417 -.00000476  00000-0 -13061-4 0  9996","APOAPSIS":"548.542","EPOCH":"2022-12-09T11:17:02.184288","FILE":"3685496","RCS_SIZE":"LARGE","SEMIMAJOR_AXIS":"6925.354","GP_ID":"219849924","SITE":"AFETR","PERIOD":"95.592","ECCENTRICITY":"0.00019100","CLASSIFICATION_TYPE":"U","EPHEMERIS_TYPE":"0","TIME_SYSTEM":"UTC","INCLINATION":"53.0544","REF_FRAME":"TEME","OBJECT_ID":"2019-074AM","PERIAPSIS":"545.897","REV_AT_EPOCH":"16957","CENTER_NAME":"EARTH","COUNTRY_CODE":"US","MEAN_ELEMENT_THEORY":"SGP4","MEAN_MOTION":"15.06398097","ELEMENT_SET_NO":"999","MEAN_MOTION_DOT":"-0.00000476","ARG_OF_PERICENTER":"76.1411","DECAY_DATE":null,"OBJECT_NAME":"STARLINK-1043","RA_OF_ASC_NODE":"151.7724","MEAN_MOTION_DDOT":"0.0000000000000","OBJECT_TYPE":"PAYLOAD","NORAD_CAT_ID":"44748"},{"REF_FRAME":"TEME","INCLINATION":"53.0541","PERIAPSIS":"545.814","REV_AT_EPOCH":"16957","OBJECT_ID":"2019-074AQ","MEAN_MOTION_DOT":"0.00005381","ARG_OF_PERICENTER":"43.4275","DECAY_DATE":null,"MEAN_ELEMENT_THEORY":"SGP4","COUNTRY_CODE":"US","CENTER_NAME":"EARTH","ELEMENT_SET_NO":"999","MEAN_MOTION":"15.06440252","NORAD_CAT_ID":"44751","OBJECT_TYPE":"PAYLOAD","RA_OF_ASC_NODE":"151.7153","MEAN_MOTION_DDOT":"0.0000000000000","OBJECT_NAME":"STARLINK-1046","MEAN_ANOMALY":"316.6859","EPOCH":"2022-12-09T11:38:12.813792","TLE_LINE1":"1 44751U 19074AQ  22343.48487053  .00005381  00000-0  37949-3 0  9997","APOAPSIS":"548.367","RCS_SIZE":"LARGE","FILE":"3685496","TLE_LINE2":"2 44751  53.0541 151.7153 0001843  43.4275 316.6859 15.06440252169570","BSTAR":"0.00037949000000","LAUNCH_DATE":"2019-11-11","SITE":"AFETR","SEMIMAJOR_AXIS":"6925.225","GP_ID":"219850112","EPHEMERIS_TYPE":"0","ECCENTRICITY":"0.00018430","CLASSIFICATION_TYPE":"U","TIME_SYSTEM":"UTC","PERIOD":"95.590"},{"REF_FRAME":"TEME","INCLINATION":"53.0529","OBJECT_ID":"2019-074AR","REV_AT_EPOCH":"16976","PERIAPSIS":"546.489","ELEMENT_SET_NO":"999","MEAN_MOTION":"15.06302738","MEAN_ELEMENT_THEORY":"SGP4","COUNTRY_CODE":"US","CENTER_NAME":"EARTH","DECAY_DATE":null,"ARG_OF_PERICENTER":"295.9436","MEAN_MOTION_DOT":"0.00015207","OBJECT_NAME":"STARLINK-1047","OBJECT_TYPE":"PAYLOAD","NORAD_CAT_ID":"44752","RA_OF_ASC_NODE":"134.2990","MEAN_MOTION_DDOT":"0.0000000000000","MEAN_ANOMALY":"64.1400","LAUNCH_DATE":"2019-11-11","BSTAR":"0.00104030000000","TLE_LINE2":"2 44752  53.0529 134.2990 0001477 295.9436  64.1400 15.06302738169762","RCS_SIZE":"LARGE","FILE":"3685496","TLE_LINE1":"1 44752U 19074AR  22342.90799030  .00015207  00000-0  10403-2 0  9998","EPOCH":"2022-12-08T21:47:30.361920","APOAPSIS":"548.535","GP_ID":"219850106","SEMIMAJOR_AXIS":"6925.647","SITE":"AFETR","PERIOD":"95.598","TIME_SYSTEM":"UTC","EPHEMERIS_TYPE":"0","CLASSIFICATION_TYPE":"U","ECCENTRICITY":"0.00014770"},{"SEMIMAJOR_AXIS":"6925.378","GP_ID":"219838139","SITE":"AFETR","PERIOD":"95.593","CLASSIFICATION_TYPE":"U","ECCENTRICITY":"0.00019430","EPHEMERIS_TYPE":"0","TIME_SYSTEM":"UTC","MEAN_ANOMALY":"323.2897","TLE_LINE2":"2 44753  53.0557 112.1950 0001943  36.8225 323.2897 15.06390291169941","BSTAR":"0.00015077000000","LAUNCH_DATE":"2019-11-11","TLE_LINE1":"1 44753U 19074AS  22343.37800419  .00001964  00000-0  15077-3 0  9993","EPOCH":"2022-12-09T09:04:19.562016","APOAPSIS":"548.589","FILE":"3685263","RCS_SIZE":"LARGE","CENTER_NAME":"EARTH","COUNTRY_CODE":"US","MEAN_ELEMENT_THEORY":"SGP4","ELEMENT_SET_NO":"999","MEAN_MOTION":"15.06390291","MEAN_MOTION_DOT":"0.00001964","DECAY_DATE":null,"ARG_OF_PERICENTER":"36.8225","OBJECT_NAME":"STARLINK-1048","RA_OF_ASC_NODE":"112.1950","MEAN_MOTION_DDOT":"0.0000000000000","OBJECT_TYPE":"PAYLOAD","NORAD_CAT_ID":"44753","INCLINATION":"53.0557","REF_FRAME":"TEME","OBJECT_ID":"2019-074AS","PERIAPSIS":"545.898","REV_AT_EPOCH":"16994"},{"MEAN_ANOMALY":"302.9991","TLE_LINE2":"2 44754  53.0551 112.1723 0001783  57.1169 302.9991 15.06391860169941","BSTAR":"0.00002404500000","LAUNCH_DATE":"2019-11-11","EPOCH":"2022-12-09T09:09:38.647584","TLE_LINE1":"1 44754U 19074AT  22343.38169731  .00000076  00000-0  24045-4 0  9999","APOAPSIS":"548.473","FILE":"3685263","RCS_SIZE":"LARGE","GP_ID":"219839390","SEMIMAJOR_AXIS":"6925.374","SITE":"AFETR","PERIOD":"95.593","CLASSIFICATION_TYPE":"U","ECCENTRICITY":"0.00017830","EPHEMERIS_TYPE":"0","TIME_SYSTEM":"UTC","INCLINATION":"53.0551","REF_FRAME":"TEME","OBJECT_ID":"2019-074AT","PERIAPSIS":"546.004","REV_AT_EPOCH":"16994","COUNTRY_CODE":"US","CENTER_NAME":"EARTH","MEAN_ELEMENT_THEORY":"SGP4","ELEMENT_SET_NO":"999","MEAN_MOTION":"15.06391860","MEAN_MOTION_DOT":"0.00000076","ARG_OF_PERICENTER":"57.1169","DECAY_DATE":null,"OBJECT_NAME":"STARLINK-1049","RA_OF_ASC_NODE":"112.1723","MEAN_MOTION_DDOT":"0.0000000000000","NORAD_CAT_ID":"44754","OBJECT_TYPE":"PAYLOAD"},{"PERIAPSIS":"545.845","REV_AT_EPOCH":"16989","OBJECT_ID":"2019-074AW","REF_FRAME":"TEME","INCLINATION":"53.0540","NORAD_CAT_ID":"44757","OBJECT_TYPE":"PAYLOAD","MEAN_MOTION_DDOT":"0.0000000000000","RA_OF_ASC_NODE":"130.3801","OBJECT_NAME":"STARLINK-1052","MEAN_MOTION_DOT":"-0.00003261","DECAY_DATE":null,"ARG_OF_PERICENTER":"69.5345","MEAN_ELEMENT_THEORY":"SGP4","CENTER_NAME":"EARTH","COUNTRY_CODE":"US","ELEMENT_SET_NO":"999","MEAN_MOTION":"15.06381625","TLE_LINE1":"1 44757U 19074AW  22343.78162622 -.00003261  00000-0 -20023-3 0  9990","APOAPSIS":"548.695","EPOCH":"2022-12-09T18:45:32.505408","RCS_SIZE":"LARGE","FILE":"3685497","TLE_LINE2":"2 44757  53.0540 130.3801 0002058  69.5345 290.5865 15.06381625169894","BSTAR":"-0.00020023000000","LAUNCH_DATE":"2019-11-11","MEAN_ANOMALY":"290.5865","EPHEMERIS_TYPE":"0","ECCENTRICITY":"0.00020580","CLASSIFICATION_TYPE":"U","TIME_SYSTEM":"UTC","PERIOD":"95.593","SITE":"AFETR","GP_ID":"219850123","SEMIMAJOR_AXIS":"6925.405"},{"PERIOD":"95.592","TIME_SYSTEM":"UTC","CLASSIFICATION_TYPE":"U","ECCENTRICITY":"0.00012920","EPHEMERIS_TYPE":"0","SEMIMAJOR_AXIS":"6925.348","GP_ID":"219837889","SITE":"AFETR","LAUNCH_DATE":"2019-11-11","BSTAR":"0.00013664000000","TLE_LINE2":"2 44758  53.0543 151.8679 0001292  91.9300 268.1837 15.06400271169404","FILE":"3685263","RCS_SIZE":"LARGE","EPOCH":"2022-12-09T11:11:44.519136","TLE_LINE1":"1 44758U 19074AX  22343.46648749  .00001754  00000-0  13664-3 0  9991","APOAPSIS":"548.107","MEAN_ANOMALY":"268.1837","OBJECT_NAME":"STARLINK-1053","MEAN_MOTION_DDOT":"0.0000000000000","RA_OF_ASC_NODE":"151.8679","NORAD_CAT_ID":"44758","OBJECT_TYPE":"PAYLOAD","ELEMENT_SET_NO":"999","MEAN_MOTION":"15.06400271","CENTER_NAME":"EARTH","COUNTRY_CODE":"US","MEAN_ELEMENT_THEORY":"SGP4","DECAY_DATE":null,"ARG_OF_PERICENTER":"91.9300","MEAN_MOTION_DOT":"0.00001754","OBJECT_ID":"2019-074AX","REV_AT_EPOCH":"16940","PERIAPSIS":"546.318","INCLINATION":"53.0543","REF_FRAME":"TEME"},{"INCLINATION":"53.0546","REF_FRAME":"TEME","OBJECT_ID":"2019-074AY","REV_AT_EPOCH":"16700","PERIAPSIS":"546.475","MEAN_MOTION":"15.06423465","ELEMENT_SET_NO":"999","CENTER_NAME":"EARTH","COUNTRY_CODE":"US","MEAN_ELEMENT_THEORY":"SGP4","ARG_OF_PERICENTER":"97.4713","DECAY_DATE":null,"MEAN_MOTION_DOT":"0.00006248","OBJECT_NAME":"STARLINK-1054","MEAN_MOTION_DDOT":"0.0000000000000","RA_OF_ASC_NODE":"153.0646","OBJECT_TYPE":"PAYLOAD","NORAD_CAT_ID":"44759","MEAN_ANOMALY":"262.6385","LAUNCH_DATE":"2019-11-11","TLE_LINE2":"2 44759  53.0546 153.0646 0000962  97.4713 262.6385 15.06423465167009","BSTAR":"0.00043769000000","FILE":"3685263","RCS_SIZE":"LARGE","TLE_LINE1":"1 44759U 19074AY  22343.18264178  .00006248  00000-0  43769-3 0  9993","APOAPSIS":"547.808","EPOCH":"2022-12-09T04:23:00.249792","GP_ID":"219838640","SEMIMAJOR_AXIS":"6925.277","SITE":"AFETR","PERIOD":"95.591","TIME_SYSTEM":"UTC","CLASSIFICATION_TYPE":"U","ECCENTRICITY":"0.00009620","EPHEMERIS_TYPE":"0"}];
